QIANFAN-161             
1 69120U 26108S   26195.03095648 -.02072067  00000+0 -23264+1 0  9995
2 69120  89.0102  19.3079 0015019  19.4639 340.7096 13.75050830  8095
QIANFAN-162             
1 69121U 26108T   26195.01958289 -.02116724  00000+0 -26253+1 0  9993
2 69121  89.0063  19.3289 0022454  33.2163 327.0403 13.69027303  8072
QIANFAN-163             
1 69325U 26121A   26189.97247712  .00000008  00000+0 -66399-5 0  9998
2 69325  89.0049 298.3591 0020480 118.5630 241.7588 13.53894414  5116
QIANFAN-164             
1 69326U 26121B   26194.67164071  .00000062  00000+0  78132-4 0  9994
2 69326  89.0183 297.8725 0022845 112.6356 247.7213 13.49695561  5743
QIANFAN-165             
1 69382U 26124A   26194.77683948 -.01948128  00000+0 -16686+1 0  9998
2 69382  88.9998 359.0594 0001833 211.3630 148.7435 13.90859137  5561
QIANFAN-166             
1 69383U 26124B   26194.60151321 -.01938716  00000+0 -15918+1 0  9995
2 69383  88.9994 359.0705 0005903 124.5173 235.6560 13.93275190  5548
QIANFAN-167             
1 69384U 26124C   26194.69848794 -.02021871  00000+0 -17505+1 0  9992
2 69384  88.9994 359.0670 0002799 140.3745 219.7633 13.90386127  5556
QIANFAN-168             
1 69385U 26124D   26194.73980764 -.02069055  00000+0 -17386+1 0  9995
2 69385  88.9991 359.0528 0007764  83.9770 276.2289 13.92199665  5560
QIANFAN-169             
1 69386U 26124E   26194.86905771  .00000037  00000+0  17352-4 0  9993
2 69386  88.9993 359.0363 0009299  61.0354 299.1754 13.95730120  5583
QIANFAN-170             
1 69387U 26124F   26194.63082574 -.02007618  00000+0 -15991+1 0  9995
2 69387  88.9987 359.0559 0011605  45.4519 314.7603 13.95134844  5552
QIANFAN-171             
1 69388U 26124G   26194.61566994 -.01971274  00000+0 -15802+1 0  9995
2 69388  88.9990 359.0540 0009779 103.9669 256.2594 13.94702320  5550
QIANFAN-172             
1 69389U 26124H   26194.61823655 -.02019282  00000+0 -15697+1 0  9991
2 69389  88.9993 359.0553 0010932  84.4324 275.8099 13.96552668  5559
QIANFAN-173             
1 69390U 26124J   26194.60307589 -.02113249  00000+0 -16290+1 0  9993
2 69390  88.9994 359.0529 0011294  65.7204 294.5152 13.97225191  5553
QIANFAN-174             
1 69391U 26124K   26194.93960002  .00000043  00000+0  19346-4 0  9997
2 69391  88.9975 359.0119 0004801  86.8602 273.3127 14.01181664  5593
QIANFAN-175             
1 69392U 26124L   26194.79926316  .00000049  00000+0  24217-4 0  9991
2 69392  89.0015 359.0581 0005943  78.1481 282.0364 13.99646194  5580
QIANFAN-176             
1 69393U 26124M   26194.93925447  .00000038  00000+0  16810-4 0  9990
2 69393  88.9995 359.0090 0006992  71.7069 288.4869 13.99510106  5591
