{"fetched_at":"2026-07-14T17:40:26.806Z","source":"https://celestrak.org/NORAD/elements/gp.php?GROUP=qianfan&FORMAT=JSON","constellation":"qianfan","records":[{"OBJECT_NAME":"QIANFAN-161","OBJECT_ID":"2026-108S","EPOCH":"2026-07-14T00:44:34.639872","CLASSIFICATION_TYPE":"U","MEAN_MOTION":13.7505083,"ECCENTRICITY":0.0015019,"INCLINATION":89.0102,"RA_OF_ASC_NODE":19.3079,"ARG_OF_PERICENTER":19.4639,"MEAN_ANOMALY":340.7096,"EPHEMERIS_TYPE":0,"NORAD_CAT_ID":69120,"ELEMENT_SET_NO":999,"REV_AT_EPOCH":809,"BSTAR":-2.3264,"MEAN_MOTION_DOT":-0.02072067,"MEAN_MOTION_DDOT":0},{"OBJECT_NAME":"QIANFAN-162","OBJECT_ID":"2026-108T","EPOCH":"2026-07-14T00:28:11.961696","CLASSIFICATION_TYPE":"U","MEAN_MOTION":13.69027303,"ECCENTRICITY":0.0022454,"INCLINATION":89.0063,"RA_OF_ASC_NODE":19.3289,"ARG_OF_PERICENTER":33.2163,"MEAN_ANOMALY":327.0403,"EPHEMERIS_TYPE":0,"NORAD_CAT_ID":69121,"ELEMENT_SET_NO":999,"REV_AT_EPOCH":807,"BSTAR":-2.6253,"MEAN_MOTION_DOT":-0.02116724,"MEAN_MOTION_DDOT":0},{"OBJECT_NAME":"QIANFAN-163","OBJECT_ID":"2026-121A","EPOCH":"2026-07-08T23:20:22.023168","CLASSIFICATION_TYPE":"U","MEAN_MOTION":13.53894414,"ECCENTRICITY":0.00204807,"INCLINATION":89.0049,"RA_OF_ASC_NODE":298.3591,"ARG_OF_PERICENTER":118.563,"MEAN_ANOMALY":241.7588,"EPHEMERIS_TYPE":0,"NORAD_CAT_ID":69325,"ELEMENT_SET_NO":999,"REV_AT_EPOCH":511,"BSTAR":-0.000006639878,"MEAN_MOTION_DOT":8e-8,"MEAN_MOTION_DDOT":0},{"OBJECT_NAME":"QIANFAN-164","OBJECT_ID":"2026-121B","EPOCH":"2026-07-13T16:07:09.757344","CLASSIFICATION_TYPE":"U","MEAN_MOTION":13.49695561,"ECCENTRICITY":0.0022845,"INCLINATION":89.0183,"RA_OF_ASC_NODE":297.8725,"ARG_OF_PERICENTER":112.6356,"MEAN_ANOMALY":247.7213,"EPHEMERIS_TYPE":0,"NORAD_CAT_ID":69326,"ELEMENT_SET_NO":999,"REV_AT_EPOCH":574,"BSTAR":0.000078132,"MEAN_MOTION_DOT":6.2e-7,"MEAN_MOTION_DDOT":0},{"OBJECT_NAME":"QIANFAN-165","OBJECT_ID":"2026-124A","EPOCH":"2026-07-13T18:38:38.931072","CLASSIFICATION_TYPE":"U","MEAN_MOTION":13.90859137,"ECCENTRICITY":0.0001833,"INCLINATION":88.9998,"RA_OF_ASC_NODE":359.0594,"ARG_OF_PERICENTER":211.363,"MEAN_ANOMALY":148.7435,"EPHEMERIS_TYPE":0,"NORAD_CAT_ID":69382,"ELEMENT_SET_NO":999,"REV_AT_EPOCH":556,"BSTAR":-1.6686,"MEAN_MOTION_DOT":-0.01948128,"MEAN_MOTION_DDOT":0},{"OBJECT_NAME":"QIANFAN-166","OBJECT_ID":"2026-124B","EPOCH":"2026-07-13T14:26:10.741344","CLASSIFICATION_TYPE":"U","MEAN_MOTION":13.9327519,"ECCENTRICITY":0.0005903,"INCLINATION":88.9994,"RA_OF_ASC_NODE":359.0705,"ARG_OF_PERICENTER":124.5173,"MEAN_ANOMALY":235.656,"EPHEMERIS_TYPE":0,"NORAD_CAT_ID":69383,"ELEMENT_SET_NO":999,"REV_AT_EPOCH":554,"BSTAR":-1.5918,"MEAN_MOTION_DOT":-0.01938716,"MEAN_MOTION_DDOT":0},{"OBJECT_NAME":"QIANFAN-167","OBJECT_ID":"2026-124C","EPOCH":"2026-07-13T16:45:49.358016","CLASSIFICATION_TYPE":"U","MEAN_MOTION":13.90386127,"ECCENTRICITY":0.0002799,"INCLINATION":88.9994,"RA_OF_ASC_NODE":359.067,"ARG_OF_PERICENTER":140.3745,"MEAN_ANOMALY":219.7633,"EPHEMERIS_TYPE":0,"NORAD_CAT_ID":69384,"ELEMENT_SET_NO":999,"REV_AT_EPOCH":555,"BSTAR":-1.7505,"MEAN_MOTION_DOT":-0.02021871,"MEAN_MOTION_DDOT":0},{"OBJECT_NAME":"QIANFAN-168","OBJECT_ID":"2026-124D","EPOCH":"2026-07-13T17:45:19.380096","CLASSIFICATION_TYPE":"U","MEAN_MOTION":13.92199665,"ECCENTRICITY":0.0007764,"INCLINATION":88.9991,"RA_OF_ASC_NODE":359.0528,"ARG_OF_PERICENTER":83.977,"MEAN_ANOMALY":276.2289,"EPHEMERIS_TYPE":0,"NORAD_CAT_ID":69385,"ELEMENT_SET_NO":999,"REV_AT_EPOCH":556,"BSTAR":-1.7386,"MEAN_MOTION_DOT":-0.02069055,"MEAN_MOTION_DDOT":0},{"OBJECT_NAME":"QIANFAN-169","OBJECT_ID":"2026-124E","EPOCH":"2026-07-13T20:51:26.586144","CLASSIFICATION_TYPE":"U","MEAN_MOTION":13.9573012,"ECCENTRICITY":0.0009299,"INCLINATION":88.9993,"RA_OF_ASC_NODE":359.0363,"ARG_OF_PERICENTER":61.0354,"MEAN_ANOMALY":299.1754,"EPHEMERIS_TYPE":0,"NORAD_CAT_ID":69386,"ELEMENT_SET_NO":999,"REV_AT_EPOCH":558,"BSTAR":0.000017352,"MEAN_MOTION_DOT":3.7e-7,"MEAN_MOTION_DDOT":0},{"OBJECT_NAME":"QIANFAN-170","OBJECT_ID":"2026-124F","EPOCH":"2026-07-13T15:08:23.343936","CLASSIFICATION_TYPE":"U","MEAN_MOTION":13.95134844,"ECCENTRICITY":0.0011605,"INCLINATION":88.9987,"RA_OF_ASC_NODE":359.0559,"ARG_OF_PERICENTER":45.4519,"MEAN_ANOMALY":314.7603,"EPHEMERIS_TYPE":0,"NORAD_CAT_ID":69387,"ELEMENT_SET_NO":999,"REV_AT_EPOCH":555,"BSTAR":-1.5991,"MEAN_MOTION_DOT":-0.02007618,"MEAN_MOTION_DDOT":0},{"OBJECT_NAME":"QIANFAN-171","OBJECT_ID":"2026-124G","EPOCH":"2026-07-13T14:46:33.882816","CLASSIFICATION_TYPE":"U","MEAN_MOTION":13.9470232,"ECCENTRICITY":0.0009779,"INCLINATION":88.999,"RA_OF_ASC_NODE":359.054,"ARG_OF_PERICENTER":103.9669,"MEAN_ANOMALY":256.2594,"EPHEMERIS_TYPE":0,"NORAD_CAT_ID":69388,"ELEMENT_SET_NO":999,"REV_AT_EPOCH":555,"BSTAR":-1.5802,"MEAN_MOTION_DOT":-0.01971274,"MEAN_MOTION_DDOT":0},{"OBJECT_NAME":"QIANFAN-172","OBJECT_ID":"2026-124H","EPOCH":"2026-07-13T14:50:15.637920","CLASSIFICATION_TYPE":"U","MEAN_MOTION":13.96552668,"ECCENTRICITY":0.0010932,"INCLINATION":88.9993,"RA_OF_ASC_NODE":359.0553,"ARG_OF_PERICENTER":84.4324,"MEAN_ANOMALY":275.8099,"EPHEMERIS_TYPE":0,"NORAD_CAT_ID":69389,"ELEMENT_SET_NO":999,"REV_AT_EPOCH":555,"BSTAR":-1.5697,"MEAN_MOTION_DOT":-0.02019282,"MEAN_MOTION_DDOT":0},{"OBJECT_NAME":"QIANFAN-173","OBJECT_ID":"2026-124J","EPOCH":"2026-07-13T14:28:25.756896","CLASSIFICATION_TYPE":"U","MEAN_MOTION":13.97225191,"ECCENTRICITY":0.0011294,"INCLINATION":88.9994,"RA_OF_ASC_NODE":359.0529,"ARG_OF_PERICENTER":65.7204,"MEAN_ANOMALY":294.5152,"EPHEMERIS_TYPE":0,"NORAD_CAT_ID":69390,"ELEMENT_SET_NO":999,"REV_AT_EPOCH":555,"BSTAR":-1.629,"MEAN_MOTION_DOT":-0.02113249,"MEAN_MOTION_DDOT":0},{"OBJECT_NAME":"QIANFAN-174","OBJECT_ID":"2026-124K","EPOCH":"2026-07-13T22:33:01.441728","CLASSIFICATION_TYPE":"U","MEAN_MOTION":14.01181664,"ECCENTRICITY":0.0004801,"INCLINATION":88.9975,"RA_OF_ASC_NODE":359.0119,"ARG_OF_PERICENTER":86.8602,"MEAN_ANOMALY":273.3127,"EPHEMERIS_TYPE":0,"NORAD_CAT_ID":69391,"ELEMENT_SET_NO":999,"REV_AT_EPOCH":559,"BSTAR":0.000019346,"MEAN_MOTION_DOT":4.3e-7,"MEAN_MOTION_DDOT":0},{"OBJECT_NAME":"QIANFAN-175","OBJECT_ID":"2026-124L","EPOCH":"2026-07-13T19:10:56.337024","CLASSIFICATION_TYPE":"U","MEAN_MOTION":13.99646194,"ECCENTRICITY":0.0005943,"INCLINATION":89.0015,"RA_OF_ASC_NODE":359.0581,"ARG_OF_PERICENTER":78.1481,"MEAN_ANOMALY":282.0364,"EPHEMERIS_TYPE":0,"NORAD_CAT_ID":69392,"ELEMENT_SET_NO":999,"REV_AT_EPOCH":558,"BSTAR":0.000024217,"MEAN_MOTION_DOT":4.9e-7,"MEAN_MOTION_DDOT":0},{"OBJECT_NAME":"QIANFAN-176","OBJECT_ID":"2026-124M","EPOCH":"2026-07-13T22:32:31.586208","CLASSIFICATION_TYPE":"U","MEAN_MOTION":13.99510106,"ECCENTRICITY":0.0006992,"INCLINATION":88.9995,"RA_OF_ASC_NODE":359.009,"ARG_OF_PERICENTER":71.7069,"MEAN_ANOMALY":288.4869,"EPHEMERIS_TYPE":0,"NORAD_CAT_ID":69393,"ELEMENT_SET_NO":999,"REV_AT_EPOCH":559,"BSTAR":0.00001681,"MEAN_MOTION_DOT":3.8e-7,"MEAN_MOTION_DDOT":0}]}
